LEMUR-2-FINNIAN         
1 66782U 25276DX  26179.15071274  .00002908  00000+0  23541-3 0  9999
2 66782  97.5323 249.7966 0008687  57.4642 302.7420 15.00469509 21640
LEMUR-2-STARLIGHT       
1 66783U 25276DY  26179.45054277  .00006438  00000+0  53238-3 0  9995
2 66783  97.5243 249.7041 0014657  95.8660 264.4234 14.99166789 31881
LEMUR-2-TARTIFLETTE     
1 66784U 25276DZ  26179.44887612  .00005253  00000+0  43533-3 0  9993
2 66784  97.5246 249.7102 0013651 103.1101 257.1647 14.99173773 31887
LEMUR-2-VUKASIN         
1 66785U 25276EA  26179.43284741  .00001433  00000+0  11851-3 0  9991
2 66785  97.5289 250.0191 0005374  98.0400 262.1434 15.00430886 31834
LEMUR-2-HOTSPUR-TOM     
1 66786U 25276EB  26179.50896091  .00005235  00000+0  43486-3 0  9990
2 66786  97.5242 249.7471 0014567  94.8115 265.4773 14.99074734 31825
LEMUR-2-MYRA            
1 66787U 25276EC  26179.46500034  .00006791  00000+0  54301-3 0  9991
2 66787  97.5221 249.9762 0017875 105.3252 254.9949 15.00398339 31903
LEMUR-2 FIKRETDENGIZ    
1 67363U 26004A   26179.56331403  .00003470  00000+0  37980-3 0  9990
2 67363  97.8013 177.9466 0010583 101.0747 259.1660 14.88405234 24972
TWILIGHT-1 OBJECT B     
1 67364U 26004B   26179.52541099  .00001802  00000+0  20346-3 0  9996
2 67364  97.8064 177.9195 0010284  92.5199 267.7195 14.87740088 24977
LEMUR-2-MARIO-SOUSA     
1 67365U 26004C   26179.54546155  .00004473  00000+0  48550-3 0  9991
2 67365  97.7985 177.9247 0010212 102.3225 257.9136 14.88601716 24980
LEMUR-2-SONNENBLUME     
1 67367U 26004E   26179.47824320  .00003078  00000+0  33794-3 0  9992
2 67367  97.7984 177.8387 0009692 103.8421 256.3874 14.88373226 24972
LEMUR-2-WOBLER          
1 67368U 26004F   26179.53736611  .00003749  00000+0  40810-3 0  9997
2 67368  97.8036 178.0306 0010017  94.9635 265.2726 14.88590499 24985
LEMUR-2-GRAM-E-SUE      
1 67370U 26004H   26179.52845471  .00002331  00000+0  25649-3 0  9993
2 67370  97.7970 177.9039 0008784 105.2375 254.9814 14.88518459 24989
LEMUR-2-KATIE           
1 67387U 26004AA  26179.57080956  .00002619  00000+0  27646-3 0  9993
2 67387  97.8033 178.4421 0004643  69.3805 290.7911 14.90116313 25003
LEMUR-2-HCS-BAZUS       
1 67388U 26004AB  26179.56956300  .00004316  00000+0  45115-3 0  9995
2 67388  97.8020 178.4206 0004088  67.8434 292.3217 14.90177651 25004
