OBJECT_NAME,OBJECT_ID,EPOCH,MEAN_MOTION,ECCENTRICITY,INCLINATION,RA_OF_ASC_NODE,ARG_OF_PERICENTER,MEAN_ANOMALY,EPHEMERIS_TYPE,CLASSIFICATION_TYPE,NORAD_CAT_ID,ELEMENT_SET_NO,REV_AT_EPOCH,BSTAR,MEAN_MOTION_DOT,MEAN_MOTION_DDOT
LEMUR-2-FINNIAN,2025-276DX,2026-06-28T03:37:01.580736,15.00469509,.00086875,97.5323,249.7966,57.4642,302.7420,0,U,66782,999,2164,.23541032E-3,.2908E-4,0
LEMUR-2-STARLIGHT,2025-276DY,2026-06-28T10:48:46.895328,14.99166789,.00146574,97.5243,249.7041,95.8660,264.4234,0,U,66783,999,3188,.53237933E-3,.6438E-4,0
LEMUR-2-TARTIFLETTE,2025-276DZ,2026-06-28T10:46:22.896768,14.99173773,.00136516,97.5246,249.7102,103.1101,257.1647,0,U,66784,999,3188,.43533191E-3,.5253E-4,0
LEMUR-2-VUKASIN,2025-276EA,2026-06-28T10:23:18.016224,15.00430886,.00053741,97.5289,250.0191,98.0400,262.1434,0,U,66785,999,3183,.11851195E-3,.1433E-4,0
LEMUR-2-HOTSPUR-TOM,2025-276EB,2026-06-28T12:12:54.222624,14.99074734,.00145674,97.5242,249.7471,94.8115,265.4773,0,U,66786,999,3182,.43486013E-3,.5235E-4,0
LEMUR-2-MYRA,2025-276EC,2026-06-28T11:09:36.029376,15.00398339,.0017875,97.5221,249.9762,105.3252,254.9949,0,U,66787,999,3190,.54301481E-3,.6791E-4,0
LEMUR-2 FIKRETDENGIZ,2026-004A,2026-06-28T13:31:10.332192,14.88405234,.00105835,97.8013,177.9466,101.0747,259.1660,0,U,67363,999,2497,.37980331E-3,.347E-4,0
TWILIGHT-1 OBJECT B,2026-004B,2026-06-28T12:36:35.509536,14.87740088,.0010284,97.8064,177.9195,92.5199,267.7195,0,U,67364,999,2497,.20346102E-3,.1802E-4,0
LEMUR-2-MARIO-SOUSA,2026-004C,2026-06-28T13:05:27.877920,14.88601716,.00102127,97.7985,177.9247,102.3225,257.9136,0,U,67365,999,2498,.48550019E-3,.4473E-4,0
LEMUR-2-SONNENBLUME,2026-004E,2026-06-28T11:28:40.212480,14.88373226,.00096922,97.7984,177.8387,103.8421,256.3874,0,U,67367,999,2497,.33794085E-3,.3078E-4,0
LEMUR-2-WOBLER,2026-004F,2026-06-28T12:53:48.431904,14.88590499,.00100172,97.8036,178.0306,94.9635,265.2726,0,U,67368,999,2498,.40810002E-3,.3749E-4,0
LEMUR-2-GRAM-E-SUE,2026-004H,2026-06-28T12:40:58.486944,14.88518459,.00087843,97.7970,177.9039,105.2375,254.9814,0,U,67370,999,2498,.25648802E-3,.2331E-4,0
LEMUR-2-KATIE,2026-004AA,2026-06-28T13:41:57.945984,14.90116313,.00046437,97.8033,178.4421,69.3805,290.7911,0,U,67387,999,2500,.27646063E-3,.2619E-4,0
LEMUR-2-HCS-BAZUS,2026-004AB,2026-06-28T13:40:10.243200,14.90177651,.00040885,97.8020,178.4206,67.8434,292.3217,0,U,67388,999,2500,.45115439E-3,.4316E-4,0
